[{"OBJECT_NAME":"STARLINK-31936","OBJECT_ID":"2024-098T","EPOCH":"2026-03-09T12:54:48.281184","MEAN_MOTION":15.27575371,"ECCENTRICITY":0.00011523,"INCLINATION":43.0038,"RA_OF_ASC_NODE":246.5196,"ARG_OF_PERICENTER":272.6607,"MEAN_ANOMALY":87.4113,"EPHEMERIS_TYPE":0,"CLASSIFICATION_TYPE":"U","NORAD_CAT_ID":59875,"ELEMENT_SET_NO":999,"REV_AT_EPOCH":10218,"BSTAR":3.3307489e-5,"MEAN_MOTION_DOT":6.54e-6,"MEAN_MOTION_DDOT":0},{"OBJECT_NAME":"HERMES-3","OBJECT_ID":"2025-052BR","EPOCH":"2026-03-09T22:30:01.073952","MEAN_MOTION":15.30039786,"ECCENTRICITY":0.00079928,"INCLINATION":97.3987,"RA_OF_ASC_NODE":324.6131,"ARG_OF_PERICENTER":112.9583,"MEAN_ANOMALY":247.2502,"EPHEMERIS_TYPE":0,"CLASSIFICATION_TYPE":"U","NORAD_CAT_ID":63835,"ELEMENT_SET_NO":999,"REV_AT_EPOCH":5486,"BSTAR":0.0006995793,"MEAN_MOTION_DOT":0.00020316,"MEAN_MOTION_DDOT":0}]
